{
  "type": "FeatureCollection",
  "features": [
    {
      "type": "Feature",
      "properties": {
        "norad_id": 43602,
        "name": "BEIDOU-3 M12 (C26)",
        "group": "beidou",
        "lat": 2.3463611985640753,
        "lon": -171.27796235044073,
        "alt_km": 21508.0960604667,
        "timestamp": "2025-12-22T18:58:53.700017+00:00",
        "meta_object_name": "BEIDOU-3 M12 (C26)",
        "meta_object_id": "2018-067A",
        "meta_epoch": "2025-12-19T13:33:24.239232",
        "meta_mean_motion": 1.86227856,
        "meta_eccentricity": 0.00092481,
        "meta_inclination": 54.1835,
        "meta_ra_of_asc_node": 187.1314,
        "meta_arg_of_pericenter": 41.3287,
        "meta_mean_anomaly": 318.7989,
        "meta_ephemeris_type": 0,
        "meta_classification_type": "U",
        "meta_norad_cat_id": 43602,
        "meta_element_set_no": 999,
        "meta_rev_at_epoch": 4977,
        "meta_bstar": 0,
        "meta_mean_motion_dot": 1.01e-06,
        "meta_mean_motion_ddot": 0,
        "tle_line1": "1 43602U 18067A   25353.56486388  .00000101  00000+0  00000+0 0  9993",
        "tle_line2": "2 43602  54.1835 187.1314 0009248  41.3287 318.7989  1.86227856 49773"
      },
      "geometry": {
        "type": "Point",
        "coordinates": [
          -171.27796235044073,
          2.3463611985640753
        ]
      }
    },
    {
      "type": "Feature",
      "properties": {
        "norad_id": 43603,
        "name": "BEIDOU-3 M11 (C25)",
        "group": "beidou",
        "lat": -54.058219250092556,
        "lon": 101.5972979469584,
        "alt_km": 21543.2053812713,
        "timestamp": "2025-12-22T18:58:53.700028+00:00",
        "meta_object_name": "BEIDOU-3 M11 (C25)",
        "meta_object_id": "2018-067B",
        "meta_epoch": "2025-12-21T20:19:59.008800",
        "meta_mean_motion": 1.86227367,
        "meta_eccentricity": 0.00056442,
        "meta_inclination": 54.1806,
        "meta_ra_of_asc_node": 187.018,
        "meta_arg_of_pericenter": 37.5016,
        "meta_mean_anomaly": 322.5818,
        "meta_ephemeris_type": 0,
        "meta_classification_type": "U",
        "meta_norad_cat_id": 43603,
        "meta_element_set_no": 999,
        "meta_rev_at_epoch": 4984,
        "meta_bstar": 0,
        "meta_mean_motion_dot": 9.4e-07,
        "meta_mean_motion_ddot": 0,
        "tle_line1": "1 43603U 18067B   25355.84721075  .00000094  00000+0  00000+0 0  9993",
        "tle_line2": "2 43603  54.1806 187.0180 0005644  37.5016 322.5818  1.86227367 49844"
      },
      "geometry": {
        "type": "Point",
        "coordinates": [
          101.5972979469584,
          -54.058219250092556
        ]
      }
    },
    {
      "type": "Feature",
      "properties": {
        "norad_id": 43622,
        "name": "BEIDOU-3 M13 (C32)",
        "group": "beidou",
        "lat": -45.10606938361611,
        "lon": 26.850677638788337,
        "alt_km": 21515.988514077057,
        "timestamp": "2025-12-22T18:58:53.700040+00:00",
        "meta_object_name": "BEIDOU-3 M13 (C32)",
        "meta_object_id": "2018-072A",
        "meta_epoch": "2025-12-21T06:24:05.172192",
        "meta_mean_motion": 1.86231118,
        "meta_eccentricity": 0.00062116,
        "meta_inclination": 56.4663,
        "meta_ra_of_asc_node": 68.5379,
        "meta_arg_of_pericenter": 298.3671,
        "meta_mean_anomaly": 61.6165,
        "meta_ephemeris_type": 0,
        "meta_classification_type": "U",
        "meta_norad_cat_id": 43622,
        "meta_element_set_no": 999,
        "meta_rev_at_epoch": 4934,
        "meta_bstar": 0,
        "meta_mean_motion_dot": -3.6e-07,
        "meta_mean_motion_ddot": 0,
        "tle_line1": "1 43622U 18072A   25355.26672653 -.00000036  00000+0  00000+0 0  9990",
        "tle_line2": "2 43622  56.4663  68.5379 0006211 298.3671  61.6165  1.86231118 49349"
      },
      "geometry": {
        "type": "Point",
        "coordinates": [
          26.850677638788337,
          -45.10606938361611
        ]
      }
    },
    {
      "type": "Feature",
      "properties": {
        "norad_id": 43623,
        "name": "BEIDOU-3 M14 (C33)",
        "group": "beidou",
        "lat": 26.29156328773383,
        "lon": 87.59606616428448,
        "alt_km": 21520.652284068856,
        "timestamp": "2025-12-22T18:58:53.700051+00:00",
        "meta_object_name": "BEIDOU-3 M14 (C33)",
        "meta_object_id": "2018-072B",
        "meta_epoch": "2025-12-22T04:56:47.689728",
        "meta_mean_motion": 1.86231163,
        "meta_eccentricity": 0.00035757,
        "meta_inclination": 56.4687,
        "meta_ra_of_asc_node": 68.5008,
        "meta_arg_of_pericenter": 327.1514,
        "meta_mean_anomaly": 32.8768,
        "meta_ephemeris_type": 0,
        "meta_classification_type": "U",
        "meta_norad_cat_id": 43623,
        "meta_element_set_no": 999,
        "meta_rev_at_epoch": 4935,
        "meta_bstar": 0,
        "meta_mean_motion_dot": -3e-07,
        "meta_mean_motion_ddot": 0,
        "tle_line1": "1 43623U 18072B   25356.20610752 -.00000030  00000+0  00000+0 0  9992",
        "tle_line2": "2 43623  56.4687  68.5008 0003575 327.1514  32.8768  1.86231163 49352"
      },
      "geometry": {
        "type": "Point",
        "coordinates": [
          87.59606616428448,
          26.29156328773383
        ]
      }
    },
    {
      "type": "Feature",
      "properties": {
        "norad_id": 43647,
        "name": "BEIDOU-3 M16 (C35)",
        "group": "beidou",
        "lat": -51.1727193134084,
        "lon": -117.22992611274954,
        "alt_km": 21534.859717787705,
        "timestamp": "2025-12-22T18:58:53.700062+00:00",
        "meta_object_name": "BEIDOU-3 M16 (C35)",
        "meta_object_id": "2018-078A",
        "meta_epoch": "2025-12-21T06:57:26.662752",
        "meta_mean_motion": 1.86232383,
        "meta_eccentricity": 0.00073912,
        "meta_inclination": 54.254,
        "meta_ra_of_asc_node": 306.2225,
        "meta_arg_of_pericenter": 20.1589,
        "meta_mean_anomaly": 339.8673,
        "meta_ephemeris_type": 0,
        "meta_classification_type": "U",
        "meta_norad_cat_id": 43647,
        "meta_element_set_no": 999,
        "meta_rev_at_epoch": 4884,
        "meta_bstar": 0,
        "meta_mean_motion_dot": -6.2e-07,
        "meta_mean_motion_ddot": 0,
        "tle_line1": "1 43647U 18078A   25355.28989193 -.00000062  00000+0  00000+0 0  9994",
        "tle_line2": "2 43647  54.2540 306.2225 0007391  20.1589 339.8673  1.86232383 48840"
      },
      "geometry": {
        "type": "Point",
        "coordinates": [
          -117.22992611274954,
          -51.1727193134084
        ]
      }
    },
    {
      "type": "Feature",
      "properties": {
        "norad_id": 43648,
        "name": "BEIDOU-3 M15 (C34)",
        "group": "beidou",
        "lat": -15.94311352388212,
        "lon": 138.01264546156827,
        "alt_km": 21541.449978822897,
        "timestamp": "2025-12-22T18:58:53.700074+00:00",
        "meta_object_name": "BEIDOU-3 M15 (C34)",
        "meta_object_id": "2018-078B",
        "meta_epoch": "2025-12-21T10:03:31.527360",
        "meta_mean_motion": 1.86232375,
        "meta_eccentricity": 0.0004048,
        "meta_inclination": 54.2499,
        "meta_ra_of_asc_node": 306.2186,
        "meta_arg_of_pericenter": 19.7002,
        "meta_mean_anomaly": 340.3131,
        "meta_ephemeris_type": 0,
        "meta_classification_type": "U",
        "meta_norad_cat_id": 43648,
        "meta_element_set_no": 999,
        "meta_rev_at_epoch": 4886,
        "meta_bstar": 0,
        "meta_mean_motion_dot": -6.1e-07,
        "meta_mean_motion_ddot": 0,
        "tle_line1": "1 43648U 18078B   25355.41911490 -.00000061  00000+0  00000+0 0  9994",
        "tle_line2": "2 43648  54.2499 306.2186 0004048  19.7002 340.3131  1.86232375 48869"
      },
      "geometry": {
        "type": "Point",
        "coordinates": [
          138.01264546156827,
          -15.94311352388212
        ]
      }
    },
    {
      "type": "Feature",
      "properties": {
        "norad_id": 43683,
        "name": "BEIDOU-3 G1 (C59)",
        "group": "beidou",
        "lat": 2.1336123504313016,
        "lon": 156.27458772858856,
        "alt_km": 35780.64601886666,
        "timestamp": "2025-12-22T18:58:53.700085+00:00",
        "meta_object_name": "BEIDOU-3 G1 (C59)",
        "meta_object_id": "2018-085A",
        "meta_epoch": "2025-12-22T06:58:58.643328",
        "meta_mean_motion": 1.00267812,
        "meta_eccentricity": 0.00015219,
        "meta_inclination": 2.6304,
        "meta_ra_of_asc_node": 102.6853,
        "meta_arg_of_pericenter": 45.2099,
        "meta_mean_anomaly": 187.944,
        "meta_ephemeris_type": 0,
        "meta_classification_type": "U",
        "meta_norad_cat_id": 43683,
        "meta_element_set_no": 999,
        "meta_rev_at_epoch": 2628,
        "meta_bstar": 0,
        "meta_mean_motion_dot": -2.58e-06,
        "meta_mean_motion_ddot": 0,
        "tle_line1": "1 43683U 18085A   25356.29095652 -.00000258  00000+0  00000+0 0  9999",
        "tle_line2": "2 43683   2.6304 102.6853 0001521  45.2099 187.9440  1.00267812 26282"
      },
      "geometry": {
        "type": "Point",
        "coordinates": [
          156.27458772858856,
          2.1336123504313016
        ]
      }
    }
  ]
}